start=new Date('2022-03-07T00:00:00.000Z').valueOf();
sats=[{"SITE":"AFETR","TIME_SYSTEM":"UTC","OBJECT_NAME":"STARLINK-2523","CENTER_NAME":"EARTH","MEAN_MOTION_DOT":"0.00002202","NORAD_CAT_ID":"48306","MEAN_MOTION_DDOT":"0.0000000000000","RCS_SIZE":"LARGE","TLE_LINE2":"2 48306  53.0529 183.7412 0001557  69.1093 291.0062 15.06406683 48101","ECCENTRICITY":"0.00015570","FILE":"3347757","BSTAR":"0.00016664000000","TLE_LINE1":"1 48306U 21036AG  22065.69729698  .00002202  00000-0  16664-3 0  9996","OBJECT_TYPE":"PAYLOAD","OBJECT_ID":"2021-036AG","RA_OF_ASC_NODE":"183.7412","ARG_OF_PERICENTER":"69.1093","MEAN_MOTION":"15.06406683","ELEMENT_SET_NO":"999","SEMIMAJOR_AXIS":"6925.328","APOAPSIS":"548.271","EPHEMERIS_TYPE":"0","PERIOD":"95.592","MEAN_ELEMENT_THEORY":"SGP4","DECAY_DATE":null,"REV_AT_EPOCH":"4810","REF_FRAME":"TEME","EPOCH":"2022-03-06T16:44:06.459072","LAUNCH_DATE":"2021-04-29","INCLINATION":"53.0529","CLASSIFICATION_TYPE":"U","COUNTRY_CODE":"US","MEAN_ANOMALY":"291.0062","PERIAPSIS":"546.115","GP_ID":"198073114"},{"MEAN_ANOMALY":"290.5053","PERIAPSIS":"546.235","COUNTRY_CODE":"US","GP_ID":"198066227","REV_AT_EPOCH":"4750","REF_FRAME":"TEME","DECAY_DATE":null,"CLASSIFICATION_TYPE":"U","LAUNCH_DATE":"2021-04-29","INCLINATION":"53.0547","EPOCH":"2022-03-06T15:03:12.953664","MEAN_MOTION":"15.06445016","ELEMENT_SET_NO":"999","ARG_OF_PERICENTER":"69.6066","RA_OF_ASC_NODE":"184.0491","TLE_LINE1":"1 48307U 21036AH  22065.62723326 -.00011189  00000-0 -73254-3 0  9996","BSTAR":"-0.00073254000000","OBJECT_TYPE":"PAYLOAD","OBJECT_ID":"2021-036AH","EPHEMERIS_TYPE":"0","PERIOD":"95.589","MEAN_ELEMENT_THEORY":"SGP4","APOAPSIS":"547.916","SEMIMAJOR_AXIS":"6925.211","MEAN_MOTION_DOT":"-0.00011189","TIME_SYSTEM":"UTC","SITE":"AFETR","CENTER_NAME":"EARTH","OBJECT_NAME":"STARLINK-2528","FILE":"3347638","ECCENTRICITY":"0.00012140","RCS_SIZE":"LARGE","TLE_LINE2":"2 48307  53.0547 184.0491 0001214  69.6066 290.5053 15.06445016 47508","MEAN_MOTION_DDOT":"0.0000000000000","NORAD_CAT_ID":"48307"},{"DECAY_DATE":null,"REV_AT_EPOCH":"4750","REF_FRAME":"TEME","EPOCH":"2022-03-06T14:57:57.036384","INCLINATION":"53.0528","LAUNCH_DATE":"2021-04-29","CLASSIFICATION_TYPE":"U","COUNTRY_CODE":"US","MEAN_ANOMALY":"300.5159","PERIAPSIS":"546.322","GP_ID":"198066477","SITE":"AFETR","TIME_SYSTEM":"UTC","OBJECT_NAME":"STARLINK-2532","CENTER_NAME":"EARTH","MEAN_MOTION_DOT":"0.00001728","NORAD_CAT_ID":"48308","MEAN_MOTION_DDOT":"0.0000000000000","RCS_SIZE":"LARGE","TLE_LINE2":"2 48308  53.0528 184.0697 0001251  59.5953 300.5159 15.06408334 47501","FILE":"3347638","ECCENTRICITY":"0.00012510","TLE_LINE1":"1 48308U 21036AJ  22065.62357681  .00001728  00000-0  13484-3 0  9999","BSTAR":"0.00013484000000","OBJECT_ID":"2021-036AJ","OBJECT_TYPE":"PAYLOAD","RA_OF_ASC_NODE":"184.0697","ARG_OF_PERICENTER":"59.5953","MEAN_MOTION":"15.06408334","ELEMENT_SET_NO":"999","SEMIMAJOR_AXIS":"6925.323","APOAPSIS":"548.054","EPHEMERIS_TYPE":"0","PERIOD":"95.592","MEAN_ELEMENT_THEORY":"SGP4"},{"CLASSIFICATION_TYPE":"U","INCLINATION":"53.0536","LAUNCH_DATE":"2021-04-29","EPOCH":"2022-03-06T13:17:05.548416","REV_AT_EPOCH":"4749","REF_FRAME":"TEME","DECAY_DATE":null,"GP_ID":"198067229","MEAN_ANOMALY":"282.1598","PERIAPSIS":"546.214","COUNTRY_CODE":"US","ECCENTRICITY":"0.00013470","FILE":"3347638","RCS_SIZE":"LARGE","TLE_LINE2":"2 48309  53.0536 184.3882 0001347  77.9542 282.1598 15.06421822 47491","MEAN_MOTION_DDOT":"0.0000000000000","NORAD_CAT_ID":"48309","MEAN_MOTION_DOT":"0.00005467","SITE":"AFETR","TIME_SYSTEM":"UTC","OBJECT_NAME":"STARLINK-2517","CENTER_NAME":"EARTH","EPHEMERIS_TYPE":"0","PERIOD":"95.591","MEAN_ELEMENT_THEORY":"SGP4","APOAPSIS":"548.080","SEMIMAJOR_AXIS":"6925.282","MEAN_MOTION":"15.06421822","ELEMENT_SET_NO":"999","ARG_OF_PERICENTER":"77.9542","RA_OF_ASC_NODE":"184.3882","BSTAR":"0.00038538000000","TLE_LINE1":"1 48309U 21036AK  22065.55353644  .00005467  00000-0  38538-3 0  9998","OBJECT_ID":"2021-036AK","OBJECT_TYPE":"PAYLOAD"},{"ECCENTRICITY":"0.00012060","FILE":"3347771","RCS_SIZE":"LARGE","TLE_LINE2":"2 48310  53.0542 183.7949 0001206  73.2815 286.8306 15.06416366 48107","MEAN_MOTION_DDOT":"0.0000000000000","NORAD_CAT_ID":"48310","MEAN_MOTION_DOT":"0.00004423","SITE":"AFETR","TIME_SYSTEM":"UTC","OBJECT_NAME":"STARLINK-2536","CENTER_NAME":"EARTH","EPHEMERIS_TYPE":"0","MEAN_ELEMENT_THEORY":"SGP4","PERIOD":"95.591","APOAPSIS":"547.999","SEMIMAJOR_AXIS":"6925.298","MEAN_MOTION":"15.06416366","ELEMENT_SET_NO":"999","ARG_OF_PERICENTER":"73.2815","RA_OF_ASC_NODE":"183.7949","BSTAR":"0.00031547000000","TLE_LINE1":"1 48310U 21036AL  22065.68254391  .00004423  00000-0  31547-3 0  9997","OBJECT_TYPE":"PAYLOAD","OBJECT_ID":"2021-036AL","CLASSIFICATION_TYPE":"U","INCLINATION":"53.0542","LAUNCH_DATE":"2021-04-29","EPOCH":"2022-03-06T16:22:51.793824","REV_AT_EPOCH":"4810","REF_FRAME":"TEME","DECAY_DATE":null,"GP_ID":"198073765","MEAN_ANOMALY":"286.8306","PERIAPSIS":"546.328","COUNTRY_CODE":"US"},{"MEAN_MOTION_DOT":"0.00002131","CENTER_NAME":"EARTH","OBJECT_NAME":"STARLINK-2534","TIME_SYSTEM":"UTC","SITE":"AFETR","TLE_LINE2":"2 48311  53.0535 184.1232 0001326  78.1863 281.9274 15.06414551 47507","RCS_SIZE":"LARGE","FILE":"3347638","ECCENTRICITY":"0.00013260","NORAD_CAT_ID":"48311","MEAN_MOTION_DDOT":"0.0000000000000","ARG_OF_PERICENTER":"78.1863","ELEMENT_SET_NO":"999","MEAN_MOTION":"15.06414551","OBJECT_TYPE":"PAYLOAD","OBJECT_ID":"2021-036AM","TLE_LINE1":"1 48311U 21036AM  22065.61250653  .00002131  00000-0  16184-3 0  9992","BSTAR":"0.00016184000000","RA_OF_ASC_NODE":"184.1232","APOAPSIS":"548.087","MEAN_ELEMENT_THEORY":"SGP4","PERIOD":"95.591","EPHEMERIS_TYPE":"0","SEMIMAJOR_AXIS":"6925.304","REF_FRAME":"TEME","REV_AT_EPOCH":"4750","DECAY_DATE":null,"INCLINATION":"53.0535","LAUNCH_DATE":"2021-04-29","CLASSIFICATION_TYPE":"U","EPOCH":"2022-03-06T14:42:00.564192","COUNTRY_CODE":"US","PERIAPSIS":"546.251","MEAN_ANOMALY":"281.9274","GP_ID":"198066728"},{"MEAN_MOTION_DDOT":"0.0000000000000","NORAD_CAT_ID":"48312","FILE":"3347638","ECCENTRICITY":"0.00015380","RCS_SIZE":"LARGE","TLE_LINE2":"2 48312  53.0543 184.1354 0001538  62.9008 297.2138 15.06402474 47509","SITE":"AFETR","TIME_SYSTEM":"UTC","CENTER_NAME":"EARTH","OBJECT_NAME":"STARLINK-2061","MEAN_MOTION_DOT":"0.00000974","SEMIMAJOR_AXIS":"6925.341","EPHEMERIS_TYPE":"0","MEAN_ELEMENT_THEORY":"SGP4","PERIOD":"95.592","APOAPSIS":"548.271","RA_OF_ASC_NODE":"184.1354","BSTAR":"0.00008428400000","TLE_LINE1":"1 48312U 21036AN  22065.60883063  .00000974  00000-0  84284-4 0  9999","OBJECT_TYPE":"PAYLOAD","OBJECT_ID":"2021-036AN","MEAN_MOTION":"15.06402474","ELEMENT_SET_NO":"999","ARG_OF_PERICENTER":"62.9008","EPOCH":"2022-03-06T14:36:42.966432","CLASSIFICATION_TYPE":"U","INCLINATION":"53.0543","LAUNCH_DATE":"2021-04-29","DECAY_DATE":null,"REV_AT_EPOCH":"4750","REF_FRAME":"TEME","GP_ID":"198066978","MEAN_ANOMALY":"297.2138","PERIAPSIS":"546.141","COUNTRY_CODE":"US"},{"GP_ID":"198074014","COUNTRY_CODE":"US","MEAN_ANOMALY":"298.9554","PERIAPSIS":"546.058","EPOCH":"2022-03-06T17:42:29.145312","LAUNCH_DATE":"2021-04-29","INCLINATION":"53.0525","CLASSIFICATION_TYPE":"U","DECAY_DATE":null,"REV_AT_EPOCH":"4816","REF_FRAME":"TEME","SEMIMAJOR_AXIS":"6925.297","APOAPSIS":"548.266","EPHEMERIS_TYPE":"0","MEAN_ELEMENT_THEORY":"SGP4","PERIOD":"95.591","TLE_LINE1":"1 48313U 21036AP  22065.73783733  .00003422  00000-0  24838-3 0  9996","BSTAR":"0.00024838000000","OBJECT_ID":"2021-036AP","OBJECT_TYPE":"PAYLOAD","RA_OF_ASC_NODE":"183.5493","ARG_OF_PERICENTER":"61.1594","MEAN_MOTION":"15.06416784","ELEMENT_SET_NO":"999","NORAD_CAT_ID":"48313","MEAN_MOTION_DDOT":"0.0000000000000","RCS_SIZE":"LARGE","TLE_LINE2":"2 48313  53.0525 183.5493 0001594  61.1594 298.9554 15.06416784 48162","FILE":"3347785","ECCENTRICITY":"0.00015940","SITE":"AFETR","TIME_SYSTEM":"UTC","OBJECT_NAME":"STARLINK-2541","CENTER_NAME":"EARTH","MEAN_MOTION_DOT":"0.00003422"},{"GP_ID":"198067478","PERIAPSIS":"546.044","MEAN_ANOMALY":"285.9793","COUNTRY_CODE":"US","EPOCH":"2022-03-06T14:26:05.843328","CLASSIFICATION_TYPE":"U","LAUNCH_DATE":"2021-04-29","INCLINATION":"53.0533","DECAY_DATE":null,"REF_FRAME":"TEME","REV_AT_EPOCH":"4749","SEMIMAJOR_AXIS":"6925.296","MEAN_ELEMENT_THEORY":"SGP4","PERIOD":"95.591","EPHEMERIS_TYPE":"0","APOAPSIS":"548.277","RA_OF_ASC_NODE":"184.1743","OBJECT_ID":"2021-036AQ","OBJECT_TYPE":"PAYLOAD","BSTAR":"0.00039591000000","TLE_LINE1":"1 48314U 21036AQ  22065.60145652  .00005623  00000-0  39591-3 0  9992","ELEMENT_SET_NO":"999","MEAN_MOTION":"15.06417212","ARG_OF_PERICENTER":"74.1374","MEAN_MOTION_DDOT":"0.0000000000000","NORAD_CAT_ID":"48314","ECCENTRICITY":"0.00016120","FILE":"3347638","TLE_LINE2":"2 48314  53.0533 184.1743 0001612  74.1374 285.9793 15.06417212 47491","RCS_SIZE":"LARGE","CENTER_NAME":"EARTH","OBJECT_NAME":"STARLINK-2549","TIME_SYSTEM":"UTC","SITE":"AFETR","MEAN_MOTION_DOT":"0.00005623"},{"MEAN_ELEMENT_THEORY":"SGP4","PERIOD":"95.592","EPHEMERIS_TYPE":"0","APOAPSIS":"548.216","SEMIMAJOR_AXIS":"6925.340","ELEMENT_SET_NO":"999","MEAN_MOTION":"15.06402762","ARG_OF_PERICENTER":"71.1168","RA_OF_ASC_NODE":"184.1888","OBJECT_ID":"2021-036AR","OBJECT_TYPE":"PAYLOAD","BSTAR":"0.00000500600000","TLE_LINE1":"1 48315U 21036AR  22065.59777461 -.00000207  00000-0  50060-5 0  9990","ECCENTRICITY":"0.00014600","FILE":"3347786","TLE_LINE2":"2 48315  53.0532 184.1888 0001460  71.1168 288.9979 15.06402762 48146","RCS_SIZE":"LARGE","MEAN_MOTION_DDOT":"0.0000000000000","NORAD_CAT_ID":"48315","MEAN_MOTION_DOT":"-0.00000207","CENTER_NAME":"EARTH","OBJECT_NAME":"STARLINK-2506","TIME_SYSTEM":"UTC","SITE":"AFETR","GP_ID":"198074537","PERIAPSIS":"546.194","MEAN_ANOMALY":"288.9979","COUNTRY_CODE":"US","CLASSIFICATION_TYPE":"U","INCLINATION":"53.0532","LAUNCH_DATE":"2021-04-29","EPOCH":"2022-03-06T14:20:47.726304","REF_FRAME":"TEME","REV_AT_EPOCH":"4814","DECAY_DATE":null}];
